{"type": "FeatureCollection", "features": [ {"type": "Feature", "properties": {"norad_id": 31931, "name": "FENGYUN 1C DEB", "group": "fengyun-1c-debris", "lat": 18.83881382331331, "lon": -58.80766608583537, "alt_km": 1302.6582658471889, "timestamp": "2025-12-21T07:34:34.801066+00:00", "meta": {"OBJECT_NAME": "FENGYUN 1C DEB", "OBJECT_ID": "1999-025CMG", "EPOCH": "2025-12-17T14:03:05.853024", "MEAN_MOTION": 13.42627068, "ECCENTRICITY": 0.04227153, "INCLINATION": 97.8142, "RA_OF_ASC_NODE": 300.9752, "ARG_OF_PERICENTER": 257.0233, "MEAN_ANOMALY": 98.3392, "EPHEMERIS_TYPE": 0, "CLASSIFICATION_TYPE": "U", "NORAD_CAT_ID": 31931, "ELEMENT_SET_NO": 999, "REV_AT_EPOCH": 65287, "BSTAR": 0.00058612353, "MEAN_MOTION_DOT": 5.32e-06, "MEAN_MOTION_DDOT": 0}, "tle": {"line1": "1 31931U 99025CMG 25351.58548441  .00000532  00000+0  58612-3 0  9991", "line2": "2 31931  97.8142 300.9752 0422715 257.0233  98.3392 13.42627068652870"}}, "geometry": {"type": "Point", "coordinates": [-58.80766608583537, 18.83881382331331]}}, {"type": "Feature", "properties": {"norad_id": 31934, "name": "FENGYUN 1C DEB", "group": "fengyun-1c-debris", "lat": -26.936498394039006, "lon": 50.51500829952589, "alt_km": 564.5093988563058, "timestamp": "2025-12-21T07:34:34.801075+00:00", "meta": {"OBJECT_NAME": "FENGYUN 1C DEB", "OBJECT_ID": "1999-025CMK", "EPOCH": "2025-12-17T14:29:22.520832", "MEAN_MOTION": 15.0735698, "ECCENTRICITY": 0.00367266, "INCLINATION": 98.8801, "RA_OF_ASC_NODE": 41.6776, "ARG_OF_PERICENTER": 217.4543, "MEAN_ANOMALY": 142.4121, "EPHEMERIS_TYPE": 0, "CLASSIFICATION_TYPE": "U", "NORAD_CAT_ID": 31934, "ELEMENT_SET_NO": 999, "REV_AT_EPOCH": 60916, "BSTAR": 0.0026504952, "MEAN_MOTION_DOT": 0.00040819, "MEAN_MOTION_DDOT": 0}, "tle": {"line1": "1 31934U 99025CMK 25351.60373288  .00040819  00000+0  26505-2 0  9999", "line2": "2 31934  98.8801  41.6776 0036726 217.4543 142.4121 15.07356980609168"}}, "geometry": {"type": "Point", "coordinates": [50.51500829952589, -26.936498394039006]}}, {"type": "Feature", "properties": {"norad_id": 31937, "name": "FENGYUN 1C DEB", "group": "fengyun-1c-debris", "lat": -20.1323836079675, "lon": -97.24913687288945, "alt_km": 600.2308809602209, "timestamp": "2025-12-21T07:34:34.801084+00:00", "meta": {"OBJECT_NAME": "FENGYUN 1C DEB", "OBJECT_ID": "1999-025CMN", "EPOCH": "2025-12-06T23:52:27.149088", "MEAN_MOTION": 14.78022374, "ECCENTRICITY": 0.0162921, "INCLINATION": 99.2561, "RA_OF_ASC_NODE": 69.7316, "ARG_OF_PERICENTER": 315.3928, "MEAN_ANOMALY": 43.4262, "EPHEMERIS_TYPE": 0, "CLASSIFICATION_TYPE": "U", "NORAD_CAT_ID": 31937, "ELEMENT_SET_NO": 999, "REV_AT_EPOCH": 65984, "BSTAR": 0.0011794166, "MEAN_MOTION_DOT": 0.00010567, "MEAN_MOTION_DDOT": 0}, "tle": {"line1": "1 31937U 99025CMN 25340.99475867  .00010567  00000+0  11794-2 0  9999", "line2": "2 31937  99.2561  69.7316 0162921 315.3928  43.4262 14.78022374659842"}}, "geometry": {"type": "Point", "coordinates": [-97.24913687288945, -20.1323836079675]}}, {"type": "Feature", "properties": {"norad_id": 31938, "name": "FENGYUN 1C DEB", "group": "fengyun-1c-debris", "lat": -30.16089764852521, "lon": 33.18042194998531, "alt_km": 546.9825737518913, "timestamp": "2025-12-21T07:34:34.801093+00:00", "meta": {"OBJECT_NAME": "FENGYUN 1C DEB", "OBJECT_ID": "1999-025CMP", "EPOCH": "2025-12-20T01:12:17.760384", "MEAN_MOTION": 14.95690984, "ECCENTRICITY": 0.01527439, "INCLINATION": 98.9284, "RA_OF_ASC_NODE": 26.4976, "ARG_OF_PERICENTER": 42.8113, "MEAN_ANOMALY": 318.4881, "EPHEMERIS_TYPE": 0, "CLASSIFICATION_TYPE": "U", "NORAD_CAT_ID": 31938, "ELEMENT_SET_NO": 999, "REV_AT_EPOCH": 99245, "BSTAR": 0.00031155939, "MEAN_MOTION_DOT": 4.3e-05, "MEAN_MOTION_DDOT": 0}, "tle": {"line1": "1 31938U 99025CMP 25354.05020556  .00004300  00000+0  31156-3 0  9996", "line2": "2 31938  98.9284  26.4976 0152743  42.8113 318.4881 14.95690984992458"}}, "geometry": {"type": "Point", "coordinates": [33.18042194998531, -30.16089764852521]}}, {"type": "Feature", "properties": {"norad_id": 31944, "name": "FENGYUN 1C DEB", "group": "fengyun-1c-debris", "lat": 44.86534366768774, "lon": -27.66944940431112, "alt_km": 947.607873061278, "timestamp": "2025-12-21T07:34:34.801102+00:00", "meta": {"OBJECT_NAME": "FENGYUN 1C DEB", "OBJECT_ID": "1999-025CMV", "EPOCH": "2025-12-12T04:22:40.814976", "MEAN_MOTION": 14.11787529, "ECCENTRICITY": 0.0151811, "INCLINATION": 99.2035, "RA_OF_ASC_NODE": 133.6743, "ARG_OF_PERICENTER": 5.8705, "MEAN_ANOMALY": 173.5719, "EPHEMERIS_TYPE": 0, "CLASSIFICATION_TYPE": "U", "NORAD_CAT_ID": 31944, "ELEMENT_SET_NO": 999, "REV_AT_EPOCH": 62902, "BSTAR": 0.0007470391, "MEAN_MOTION_DOT": 1.471e-05, "MEAN_MOTION_DDOT": 0}, "tle": {"line1": "1 31944U 99025CMV 25346.18241684  .00001471  00000+0  74704-3 0  9997", "line2": "2 31944  99.2035 133.6743 0151811   5.8705 173.5719 14.11787529629027"}}, "geometry": {"type": "Point", "coordinates": [-27.66944940431112, 44.86534366768774]}}, {"type": "Feature", "properties": {"norad_id": 31945, "name": "FENGYUN 1C DEB", "group": "fengyun-1c-debris", "lat": 38.6793299095587, "lon": 64.51691793406282, "alt_km": 851.4966872339546, "timestamp": "2025-12-21T07:34:34.801111+00:00", "meta": {"OBJECT_NAME": "FENGYUN 1C DEB", "OBJECT_ID": "1999-025CMW", "EPOCH": "2025-12-19T04:41:19.522176", "MEAN_MOTION": 14.20840304, "ECCENTRICITY": 0.0060997, "INCLINATION": 98.9614, "RA_OF_ASC_NODE": 69.6247, "ARG_OF_PERICENTER": 268.4423, "MEAN_ANOMALY": 90.9765, "EPHEMERIS_TYPE": 0, "CLASSIFICATION_TYPE": "U", "NORAD_CAT_ID": 31945, "ELEMENT_SET_NO": 999, "REV_AT_EPOCH": 95287, "BSTAR": 0.0010945, "MEAN_MOTION_DOT": 2.364e-05, "MEAN_MOTION_DDOT": 0}, "tle": {"line1": "1 31945U 99025CMW 25353.19536484  .00002364  00000+0  10945-2 0  9990", "line2": "2 31945  98.9614  69.6247 0060997 268.4423  90.9765 14.20840304952878"}}, "geometry": {"type": "Point", "coordinates": [64.51691793406282, 38.6793299095587]}}, {"type": "Feature", "properties": {"norad_id": 31946, "name": "FENGYUN 1C DEB", "group": "fengyun-1c-debris", "lat": 39.850131068466766, "lon": -116.94912047235125, "alt_km": 858.0605032814647, "timestamp": "2025-12-21T07:34:34.801120+00:00", "meta": {"OBJECT_NAME": "FENGYUN 1C DEB", "OBJECT_ID": "1999-025CMX", "EPOCH": "2025-12-16T09:57:01.816704", "MEAN_MOTION": 14.16452802, "ECCENTRICITY": 0.00819225, "INCLINATION": 98.8983, "RA_OF_ASC_NODE": 50.6388, "ARG_OF_PERICENTER": 39.1679, "MEAN_ANOMALY": 321.5385, "EPHEMERIS_TYPE": 0, "CLASSIFICATION_TYPE": "U", "NORAD_CAT_ID": 31946, "ELEMENT_SET_NO": 999, "REV_AT_EPOCH": 64060, "BSTAR": 0.00089849331, "MEAN_MOTION_DOT": 1.802e-05, "MEAN_MOTION_DDOT": 0}, "tle": {"line1": "1 31946U 99025CMX 25350.41460436  .00001802  00000+0  89849-3 0  9992", "line2": "2 31946  98.8983  50.6388 0081922  39.1679 321.5385 14.16452802640603"}}, "geometry": {"type": "Point", "coordinates": [-116.94912047235125, 39.850131068466766]}}, {"type": "Feature", "properties": {"norad_id": 31948, "name": "FENGYUN 1C DEB", "group": "fengyun-1c-debris", "lat": 12.13080175148949, "lon": -121.5701101351137, "alt_km": 815.017400942299, "timestamp": "2025-12-21T07:34:34.801129+00:00", "meta": {"OBJECT_NAME": "FENGYUN 1C DEB", "OBJECT_ID": "1999-025CMZ", "EPOCH": "2025-12-18T10:10:15.056832", "MEAN_MOTION": 14.28329763, "ECCENTRICITY": 0.00234205, "INCLINATION": 99.3923, "RA_OF_ASC_NODE": 53.282, "ARG_OF_PERICENTER": 5.6805, "MEAN_ANOMALY": 59.9549, "EPHEMERIS_TYPE": 0, "CLASSIFICATION_TYPE": "U", "NORAD_CAT_ID": 31948, "ELEMENT_SET_NO": 999, "REV_AT_EPOCH": 95109, "BSTAR": 0.0011732562, "MEAN_MOTION_DOT": 2.889e-05, "MEAN_MOTION_DDOT": 0}, "tle": {"line1": "1 31948U 99025CMZ 25352.42378538  .00002889  00000+0  11733-2 0  9990", "line2": "2 31948  99.3923  53.2820 0023420   5.6805  59.9549 14.28329763951097"}}, "geometry": {"type": "Point", "coordinates": [-121.5701101351137, 12.13080175148949]}}, {"type": "Feature", "properties": {"norad_id": 31949, "name": "FENGYUN 1C DEB", "group": "fengyun-1c-debris", "lat": -3.381218755482274, "lon": -19.01314386878183, "alt_km": 927.5997930207086, "timestamp": "2025-12-21T07:34:34.801138+00:00", "meta": {"OBJECT_NAME": "FENGYUN 1C DEB", "OBJECT_ID": "1999-025CNA", "EPOCH": "2025-11-23T05:03:27.897984", "MEAN_MOTION": 14.1687356, "ECCENTRICITY": 0.01252295, "INCLINATION": 98.5419, "RA_OF_ASC_NODE": 313.4803, "ARG_OF_PERICENTER": 269.0533, "MEAN_ANOMALY": 89.6292, "EPHEMERIS_TYPE": 0, "CLASSIFICATION_TYPE": "U", "NORAD_CAT_ID": 31949, "ELEMENT_SET_NO": 999, "REV_AT_EPOCH": 95228, "BSTAR": 0.00041514195, "MEAN_MOTION_DOT": 8.56e-06, "MEAN_MOTION_DDOT": 0}, "tle": {"line1": "1 31949U 99025CNA 25327.21073956  .00000856  00000+0  41514-3 0  9999", "line2": "2 31949  98.5419 313.4803 0125229 269.0533  89.6292 14.16873560952288"}}, "geometry": {"type": "Point", "coordinates": [-19.01314386878183, -3.381218755482274]}}, {"type": "Feature", "properties": {"norad_id": 31952, "name": "FENGYUN 1C DEB", "group": "fengyun-1c-debris", "lat": -21.98381937075821, "lon": -70.64894458983851, "alt_km": 683.6487215520501, "timestamp": "2025-12-21T07:34:34.801147+00:00", "meta": {"OBJECT_NAME": "FENGYUN 1C DEB", "OBJECT_ID": "1999-025CND", "EPOCH": "2025-12-20T14:07:00.048000", "MEAN_MOTION": 14.53526014, "ECCENTRICITY": 0.0114033, "INCLINATION": 98.9564, "RA_OF_ASC_NODE": 112.224, "ARG_OF_PERICENTER": 268.6549, "MEAN_ANOMALY": 90.1579, "EPHEMERIS_TYPE": 0, "CLASSIFICATION_TYPE": "U", "NORAD_CAT_ID": 31952, "ELEMENT_SET_NO": 999, "REV_AT_EPOCH": 97323, "BSTAR": 0.00035291, "MEAN_MOTION_DOT": 1.546e-05, "MEAN_MOTION_DDOT": 0}, "tle": {"line1": "1 31952U 99025CND 25354.58819500  .00001546  00000+0  35291-3 0  9998", "line2": "2 31952  98.9564 112.2240 0114033 268.6549  90.1579 14.53526014973233"}}, "geometry": {"type": "Point", "coordinates": [-70.64894458983851, -21.98381937075821]}}]}